IRIDIUM 159             
1 43578U 18061K   25044.12891604 -.00000016  00000+0 -12711-4 0  9993
2 43578  86.3924 261.0462 0001699  89.3321 270.8069 14.34217384343282
IRIDIUM 180             
1 43922U 19002A   25043.91910831  .00000016  00000+0 -12597-5 0  9994
2 43922  86.4001 198.0374 0002079  97.6072 262.5360 14.34217281318865
IRIDIUM 176             
1 43923U 19002B   25043.92744077  .00001903  00000+0  29787-3 0  9995
2 43923  86.6128 198.0366 0001301 111.2173 248.9183 14.72245673327264
IRIDIUM 168             
1 43924U 19002C   25043.91276508 -.00000020  00000+0 -14213-4 0  9994
2 43924  86.4008 198.1039 0001807  95.1204 265.0198 14.34216937318843
IRIDIUM 173             
1 43925U 19002D   25044.45821676  .00000541  00000+0  18603-3 0  9999
2 43925  86.4005 197.7854 0002012  96.3511 263.7914 14.34213911318912
IRIDIUM 169             
1 43926U 19002E   25043.92747216  .00000186  00000+0  54307-4 0  9995
2 43926  86.4200 229.5989 0003406 111.7685 248.3876 14.38585948319884
IRIDIUM 172             
1 43927U 19002F   25044.17280972  .00000140  00000+0  43096-4 0  9998
2 43927  86.4000 197.9105 0001933  96.6197 263.5219 14.34219025318877
IRIDIUM 175             
1 43928U 19002G   25043.85421500  .00002041  00000+0  31965-3 0  9990
2 43928  86.1561 157.6837 0003160  89.1723 270.9855 14.72255042327248
